NORAD_CAT_ID,OBJECT_NAME,OBJECT_TYPE,EPOCH,MEAN_MOTION,ECCENTRICITY,INCLINATION,RA_OF_ASC_NODE,ARG_OF_PERICENTER,MEAN_ANOMALY,BSTAR,MEAN_MOTION_DOT,MEAN_MOTION_DDOT,TLE_LINE0,TLE_LINE1,TLE_LINE2,SEMIMAJOR_AXIS,PERIOD,APOGEE,PERIGEE,DECAYED
53266.0,STARLINK-4058,PAYLOAD,2022-10-22 14:00:01,15.08825804,0.0001768,53.2172,334.2273,46.6589,172.7317,0.002905,0.00046231,0.0,0 STARLINK-4058,1 53266U 22086AA  22295.58334491  .00046231  00000-0  29050-2 0  9991,2 53266  53.2172 334.2273 0001768  46.6589 172.7317 15.08825804 14574,6917.924,95.438,541.012,538.566,0.0
53266.0,STARLINK-4058,PAYLOAD,2022-10-22 22:00:00,15.08835759,0.0001547,53.2171,332.7292,50.9967,180.0055,0.00069725,0.00010825,0.0,0 STARLINK-4058,1 53266U 22086AA  22295.91667824  .00010825  00000-0  69725-3 0  9991,2 53266  53.2171 332.7292 0001547  50.9967 180.0055 15.08835759  1308,6917.893,95.438,540.8290000000002,538.688,0.0
53266.0,STARLINK-4058,PAYLOAD,2022-10-23 08:00:01,15.08859359,0.0001666999999999,53.2168,330.8599,49.3497,286.2145,-0.00018293,-3.2e-05,0.0,0 STARLINK-4058,1 53266U 22086AA  22296.33335648 -.00003200  00000-0 -18293-3 0  9999,2 53266  53.2168 330.8599 0001667  49.3497 286.2145 15.08859359 14693,6917.821,95.436,540.839,538.533,0.0
53266.0,STARLINK-4058,PAYLOAD,2022-10-23 14:00:01,15.08850416,0.0001726,53.2165,329.7382,46.4155,207.7938,0.0009152,0.00014312,0.0,0 STARLINK-4058,1 53266U 22086AA  22296.58334491  .00014312  00000-0  91520-3 0  9999,2 53266  53.2165 329.7382 0001726  46.4155 207.7938 15.08850416  1309,6917.849,95.437,540.908,538.52,0.0
53266.0,STARLINK-4058,PAYLOAD,2022-10-23 22:00:00,15.08831876,0.0001599,53.2163,328.24,53.4234,212.4087,-0.00071777,-0.00011691,0.0,0 STARLINK-4058,1 53266U 22086AA  22296.91667824 -.00011691  00000-0 -71777-3 0  9996,2 53266  53.2163 328.2400 0001599  53.4234 212.4087 15.08831876  1303,6917.905,95.438,540.876,538.664,0.0
53266.0,STARLINK-4058,PAYLOAD,2022-10-24 06:00:00,15.08830918,0.0001706,53.2162,326.7445,53.7604,223.6524,-0.00341,-0.00054138,0.0,0 STARLINK-4058,1 53266U 22086AA  22297.25001157 -.00054138  00000-0 -34100-2 0  9996,2 53266  53.2162 326.7445 0001706  53.7604 223.6524 15.08830918 14836,6917.908,95.438,540.953,538.5930000000002,0.0
53266.0,STARLINK-4058,PAYLOAD,2022-10-24 14:00:01,15.08786937,0.0001836,53.2157,325.2489,49.4471,239.526,0.0021772,0.00034482,0.0,0 STARLINK-4058,1 53266U 22086AA  22297.58334491  .00034482  00000-0  21772-2 0  9991,2 53266  53.2157 325.2489 0001836  49.4471 239.5260 15.08786937  1302,6918.043000000002,95.441,541.178,538.637,0.0
53266.0,STARLINK-4058,PAYLOAD,2022-10-24 22:00:00,15.08724025,0.0001633,53.216,323.751,54.283,246.2371,0.0060833,0.0009756,0.0,0 STARLINK-4058,1 53266U 22086AA  22297.91667824  .00097560  00000-0  60833-2 0  9994,2 53266  53.2160 323.7510 0001633  54.2830 246.2371 15.08724025  1300,6918.235,95.445,541.23,538.97,0.0
53266.0,STARLINK-4058,PAYLOAD,2022-10-25 00:00:00,15.08719715,0.0001631999999999,53.2158,323.3772,56.9674,336.4262,0.0087184,0.00140787,0.0,0 STARLINK-4058,1 53266U 22086AA  22298.00001157  .00140787  00000-0  87184-2 0  9994,2 53266  53.2158 323.3772 0001632  56.9674 336.4262 15.08719715 14942,6918.248000000001,95.445,541.242,538.984,0.0
53266.0,STARLINK-4058,PAYLOAD,2022-10-25 14:00:01,15.08822586,0.0001924,53.2153,320.7596,51.1168,272.4641,0.0012603,0.00019817,0.0,0 STARLINK-4058,1 53266U 22086AA  22298.58334491  .00019817  00000-0  12603-2 0  9990,2 53266  53.2153 320.7596 0001924  51.1168 272.4641 15.08822586 15033,6917.934,95.439,541.13,538.4680000000002,0.0
53266.0,STARLINK-4058,PAYLOAD,2022-10-25 22:00:01,15.088142199999998,0.0001810999999999,53.2154,319.2613,57.8323,277.408,0.0033836999999999,0.00053938,0.0,0 STARLINK-4058,1 53266U 22086AA  22298.91668981  .00053938  00000-0  33837-2 0  9995,2 53266  53.2154 319.2613 0001811  57.8323 277.4080 15.08814220  1301,6917.959,95.439,541.077,538.571,0.0
53266.0,STARLINK-4058,PAYLOAD,2022-10-26 14:00:01,15.08852311,0.0002019,53.2154,316.2699,51.4112,306.959,0.0010630999999999,0.00016677,0.0,0 STARLINK-4058,1 53266U 22086AA  22299.58334491  .00016677  00000-0  10631-2 0  9991,2 53266  53.2154 316.2699 0002019  51.4112 306.9590 15.08852311  1306,6917.843000000003,95.437,541.104,538.311,0.0
53266.0,STARLINK-4058,PAYLOAD,2022-10-26 22:00:00,15.08891529,0.000197,53.2172,314.7781,57.8565,312.1785,-0.0054967,-0.00086839,0.0,0 STARLINK-4058,1 53266U 22086AA  22299.91667824 -.00086839  00000-0 -54967-2 0  9996,2 53266  53.2172 314.7781 0001970  57.8565 312.1785 15.08891529 15234,6917.723000000001,95.434,540.951,538.225,0.0
53266.0,STARLINK-4058,PAYLOAD,2022-10-27 14:00:01,15.08866684,0.0001982,53.2159,311.78,49.6581,343.5874,-0.0010163,-0.00016438,0.0,0 STARLINK-4058,1 53266U 22086AA  22300.58335648 -.00016438  00000-0 -10163-2 0  9996,2 53266  53.2159 311.7800 0001982  49.6581 343.5874 15.08866684 15330,6917.799,95.436,541.035,538.293,0.0
53266.0,STARLINK-4058,PAYLOAD,2022-10-27 22:00:00,15.08817707,0.0001797,53.2162,310.2818,55.7986,349.0173,0.0032454,0.0005171,0.0,0 STARLINK-4058,1 53266U 22086AA  22300.91667824  .00051710  00000-0  32454-2 0  9994,2 53266  53.2162 310.2818 0001797  55.7986 349.0173 15.08817707  1305,6917.949000000001,95.439,541.057,538.57,0.0
53266.0,STARLINK-4058,PAYLOAD,2022-10-28 14:00:01,15.08854987,0.0001903,53.2164,307.2903,48.4203,19.6695,-0.00093006,-0.00015066,0.0,0 STARLINK-4058,1 53266U 22086AA  22301.58335648 -.00015066  00000-0 -93006-3 0  9991,2 53266  53.2164 307.2903 0001903  48.4203  19.6695 15.08854987  1308,6917.835,95.437,541.016,538.383,0.0
53266.0,STARLINK-4058,PAYLOAD,2022-10-28 22:00:01,15.08837703,0.0001694,53.2167,305.7922,54.1546,25.5471,0.0010031,0.00015711,0.0,0 STARLINK-4058,1 53266U 22086AA  22301.91668981  .00015711  00000-0  10031-2 0  9998,2 53266  53.2167 305.7922 0001694  54.1546  25.5471 15.08837703  1301,6917.887,95.438,540.924,538.581,0.0
53266.0,STARLINK-4058,PAYLOAD,2022-10-29 12:00:00,15.08843613,0.0001804,53.2166,303.1755,46.0157,323.9277,0.0013453,0.00021189,0.0,0 STARLINK-4058,1 53266U 22086AA  22302.50001157  .00021189  00000-0  13453-2 0  9997,2 53266  53.2166 303.1755 0001804  46.0157 323.9277 15.08843613  1303,6917.869000000002,95.437,540.982,538.486,0.0
53266.0,STARLINK-4058,PAYLOAD,2022-10-29 22:00:01,15.08822561,0.000154,53.2168,301.3031,52.7926,61.7348,0.0037208,0.00059399,0.0,0 STARLINK-4058,1 53266U 22086AA  22302.91668981  .00059399  00000-0  37208-2 0  9994,2 53266  53.2168 301.3031 0001540  52.7926  61.7348 15.08822561  1302,6917.934,95.439,540.864,538.7330000000002,0.0
53266.0,STARLINK-4058,PAYLOAD,2022-10-30 00:00:00,15.08850565,0.0001556,53.217,300.9293,54.6875,152.6669,0.0010581,0.00016597,0.0,0 STARLINK-4058,1 53266U 22086AA  22303.00001157  .00016597  00000-0  10581-2 0  9999,2 53266  53.2170 300.9293 0001556  54.6875 152.6669 15.08850565 15699,6917.848000000001,95.437,540.79,538.637,0.0
53266.0,STARLINK-4058,PAYLOAD,2022-10-30 14:00:01,15.0885332,0.0001694,53.2164,298.3118,47.2684,90.3891,-0.0030862,-0.00049089,0.0,0 STARLINK-4058,1 53266U 22086AA  22303.58334491 -.00049089  00000-0 -30862-2 0  9990,2 53266  53.2164 298.3118 0001694  47.2684  90.3891 15.08853320  1307,6917.84,95.437,540.877,538.533,0.0
53266.0,STARLINK-4058,PAYLOAD,2022-10-30 22:00:01,15.08811881,0.0001626999999999,53.2165,296.8141,57.69,91.6247,0.0007177,0.00011144,0.0,0 STARLINK-4058,1 53266U 22086AA  22303.91668981  .00011144  00000-0  71770-3 0  9994,2 53266  53.2165 296.8141 0001627  57.6900  91.6247 15.08811881  1304,6917.965999999999,95.439,540.957,538.706,0.0
53266.0,STARLINK-4058,PAYLOAD,2022-10-31 14:00:01,15.08835865,0.0001809,53.2159,293.823,53.6359,118.7403,-0.00055795,-9.156e-05,0.0,0 STARLINK-4058,1 53266U 22086AA  22304.58334491 -.00009156  00000-0 -55795-3 0  9995,2 53266  53.2159 293.8230 0001809  53.6359 118.7403 15.08835865  1302,6917.893,95.438,541.009,538.507,0.0
53266.0,STARLINK-4058,PAYLOAD,2022-10-31 22:00:01,15.08836147,0.0001683,53.2159,292.3254,61.1004,122.9264,0.00095945,0.00015013,0.0,0 STARLINK-4058,1 53266U 22086AA  22304.91668981  .00015013  00000-0  95945-3 0  9994,2 53266  53.2159 292.3254 0001683  61.1004 122.9264 15.08836147  1309,6917.892,95.438,540.9209999999998,538.5930000000002,0.0
53266.0,STARLINK-4058,PAYLOAD,2022-11-01 14:00:01,15.08857787,0.0001719,53.2154,289.3339,53.6303,153.5184,-0.0010445,-0.00016881,0.0,0 STARLINK-4058,1 53266U 22086AA  22305.58334491 -.00016881  00000-0 -10445-2 0  9991,2 53266  53.2154 289.3339 0001719  53.6303 153.5184 15.08857787  1306,6917.826,95.436,540.88,538.502,0.0
53266.0,STARLINK-4058,PAYLOAD,2022-11-01 22:00:00,15.08846915,0.000158,53.2153,287.8364,59.9157,158.8444,-0.00050116,-8.257e-05,0.0,0 STARLINK-4058,1 53266U 22086AA  22305.91667824 -.00008257  00000-0 -50116-3 0  9995,2 53266  53.2153 287.8364 0001580  59.9157 158.8444 15.08846915 16133,6917.859,95.437,540.817,538.631,0.0
53266.0,STARLINK-4058,PAYLOAD,2022-11-02 14:00:01,15.08847315,0.0001674,53.2155,284.8455,52.2201,189.7152,-0.0038878999999999,-0.00061647,0.0,0 STARLINK-4058,1 53266U 22086AA  22306.58334491 -.00061647  00000-0 -38879-2 0  9993,2 53266  53.2155 284.8455 0001674  52.2201 189.7152 15.08847315  1300,6917.858,95.437,540.881,538.565,0.0
53266.0,STARLINK-4058,PAYLOAD,2022-11-02 18:00:02,15.08791375,0.0001597,53.2162,284.0975,56.8023,10.9998,0.0027293,0.00043358,0.0,0 STARLINK-4058,1 53266U 22086AA  22306.75002315  .00043358  00000-0  27293-2 0  9994,2 53266  53.2162 284.0975 0001597  56.8023  10.9998 15.08791375 16261,6918.029,95.441,540.999,538.789,0.0
53266.0,STARLINK-4058,PAYLOAD,2022-11-03 08:00:34,15.08819066,0.000147,53.218,281.474,70.9338,289.1814,0.00018854,2.712e-05,0.0,0 STARLINK-4058,1 53266U 22086AA  22307.33373771  .00002712  00000-0  18854-3 0  9999,2 53266  53.2180 281.4740 0001470  70.9338 289.1814 15.08819066 16353,6917.944,95.439,540.826,538.7919999999998,0.0
